[{"OBJECT_NAME":"STARLINK-4766","OBJECT_ID":"2022-114Y","EPOCH":"2026-03-09T18:35:59.324352","MEAN_MOTION":15.08839965,"ECCENTRICITY":0.00014428,"INCLINATION":53.2167,"RA_OF_ASC_NODE":293.7971,"ARG_OF_PERICENTER":103.3549,"MEAN_ANOMALY":256.7604,"EPHEMERIS_TYPE":0,"CLASSIFICATION_TYPE":"U","NORAD_CAT_ID":53840,"ELEMENT_SET_NO":999,"REV_AT_EPOCH":19298,"BSTAR":-4.2169176e-5,"MEAN_MOTION_DOT":-9.59e-6,"MEAN_MOTION_DDOT":0},{"OBJECT_NAME":"LEMUR-2-KREMPEL-BRO2","OBJECT_ID":"2025-061C","EPOCH":"2026-03-09T20:43:52.091904","MEAN_MOTION":15.13192951,"ECCENTRICITY":0.00179248,"INCLINATION":97.5616,"RA_OF_ASC_NODE":45.5365,"ARG_OF_PERICENTER":236.8576,"MEAN_ANOMALY":123.0936,"EPHEMERIS_TYPE":0,"CLASSIFICATION_TYPE":"U","NORAD_CAT_ID":63353,"ELEMENT_SET_NO":999,"REV_AT_EPOCH":5258,"BSTAR":0.00044346981,"MEAN_MOTION_DOT":7.837e-5,"MEAN_MOTION_DDOT":0}]
